{"type": "FeatureCollection", "features": [ {"type": "Feature", "properties": {"norad_id": 36011, "name": "IRIDIUM 33 DEB", "group": "iridium-33-debris", "lat": 76.61852978091136, "lon": 50.615502405446215, "alt_km": 755.8993638943948, "timestamp": "2025-12-13T16:48:33.095225+00:00", "meta": {"OBJECT_NAME": "IRIDIUM 33 DEB", "OBJECT_ID": "1997-051US", "EPOCH": "2025-12-11T21:42:29.079072", "MEAN_MOTION": 14.41326157, "ECCENTRICITY": 0.0017563, "INCLINATION": 86.3411, "RA_OF_ASC_NODE": 35.7829, "ARG_OF_PERICENTER": 218.6873, "MEAN_ANOMALY": 266.0791, "EPHEMERIS_TYPE": 0, "CLASSIFICATION_TYPE": "U", "NORAD_CAT_ID": 36011, "ELEMENT_SET_NO": 999, "REV_AT_EPOCH": 64528, "BSTAR": 0.00076231, "MEAN_MOTION_DOT": 2.489e-05, "MEAN_MOTION_DDOT": 0}, "tle": {"line1": "1 36011U 97051US  25345.90450323  .00002489  00000+0  76231-3 0  9992", "line2": "2 36011  86.3411  35.7829 0017563 218.6873 266.0791 14.41326157645287"}}, "geometry": {"type": "Point", "coordinates": [50.615502405446215, 76.61852978091136]}}, {"type": "Feature", "properties": {"norad_id": 36012, "name": "IRIDIUM 33 DEB", "group": "iridium-33-debris", "lat": -73.32449443421106, "lon": -64.83877856963733, "alt_km": 698.390023484415, "timestamp": "2025-12-13T16:48:33.095235+00:00", "meta": {"OBJECT_NAME": "IRIDIUM 33 DEB", "OBJECT_ID": "1997-051UT", "EPOCH": "2025-12-12T20:50:29.979456", "MEAN_MOTION": 14.19027821, "ECCENTRICITY": 0.02117198, "INCLINATION": 86.4424, "RA_OF_ASC_NODE": 307.4831, "ARG_OF_PERICENTER": 262.8093, "MEAN_ANOMALY": 94.8983, "EPHEMERIS_TYPE": 0, "CLASSIFICATION_TYPE": "U", "NORAD_CAT_ID": 36012, "ELEMENT_SET_NO": 999, "REV_AT_EPOCH": 65486, "BSTAR": 0.0085459382, "MEAN_MOTION_DOT": 0.00022367, "MEAN_MOTION_DDOT": 0}, "tle": {"line1": "1 36012U 97051UT  25346.86840254  .00022367  00000+0  85459-2 0  9993", "line2": "2 36012  86.4424 307.4831 0211719 262.8093  94.8983 14.19027821654864"}}, "geometry": {"type": "Point", "coordinates": [-64.83877856963733, -73.32449443421106]}}, {"type": "Feature", "properties": {"norad_id": 36028, "name": "IRIDIUM 33 DEB", "group": "iridium-33-debris", "lat": -86.19092138289281, "lon": -128.82695307670457, "alt_km": 599.9878412065318, "timestamp": "2025-12-13T16:48:33.095245+00:00", "meta": {"OBJECT_NAME": "IRIDIUM 33 DEB", "OBJECT_ID": "1997-051VK", "EPOCH": "2025-12-12T15:30:35.875584", "MEAN_MOTION": 14.95294333, "ECCENTRICITY": 0.00215728, "INCLINATION": 86.3216, "RA_OF_ASC_NODE": 306.742, "ARG_OF_PERICENTER": 53.7253, "MEAN_ANOMALY": 306.5965, "EPHEMERIS_TYPE": 0, "CLASSIFICATION_TYPE": "U", "NORAD_CAT_ID": 36028, "ELEMENT_SET_NO": 999, "REV_AT_EPOCH": 87123, "BSTAR": 0.0032300805, "MEAN_MOTION_DOT": 0.00035897, "MEAN_MOTION_DDOT": 0}, "tle": {"line1": "1 36028U 97051VK  25346.64624856  .00035897  00000+0  32301-2 0  9994", "line2": "2 36028  86.3216 306.7420 0021572  53.7253 306.5965 14.95294333871239"}}, "geometry": {"type": "Point", "coordinates": [-128.82695307670457, -86.19092138289281]}}, {"type": "Feature", "properties": {"norad_id": 36080, "name": "IRIDIUM 33 DEB", "group": "iridium-33-debris", "lat": -38.794227657381676, "lon": 4.603359861563865, "alt_km": 755.8858853773681, "timestamp": "2025-12-13T16:48:33.095256+00:00", "meta": {"OBJECT_NAME": "IRIDIUM 33 DEB", "OBJECT_ID": "1997-051VM", "EPOCH": "2025-12-12T07:47:12.921504", "MEAN_MOTION": 14.46603626, "ECCENTRICITY": 0.0018143, "INCLINATION": 86.3202, "RA_OF_ASC_NODE": 8.1679, "ARG_OF_PERICENTER": 158.128, "MEAN_ANOMALY": 202.0701, "EPHEMERIS_TYPE": 0, "CLASSIFICATION_TYPE": "U", "NORAD_CAT_ID": 36080, "ELEMENT_SET_NO": 999, "REV_AT_EPOCH": 47408, "BSTAR": 0.00097514146, "MEAN_MOTION_DOT": 3.542e-05, "MEAN_MOTION_DDOT": 0}, "tle": {"line1": "1 36080U 97051VM  25346.32445511  .00003542  00000+0  97514-3 0  9996", "line2": "2 36080  86.3202   8.1679 0018143 158.1280 202.0701 14.46603626474086"}}, "geometry": {"type": "Point", "coordinates": [4.603359861563865, -38.794227657381676]}}, {"type": "Feature", "properties": {"norad_id": 36083, "name": "IRIDIUM 33 DEB", "group": "iridium-33-debris", "lat": 41.449459730318395, "lon": 36.97809991157814, "alt_km": 762.2998082238482, "timestamp": "2025-12-13T16:48:33.095266+00:00", "meta": {"OBJECT_NAME": "IRIDIUM 33 DEB", "OBJECT_ID": "1997-051VQ", "EPOCH": "2025-12-06T21:32:26.892672", "MEAN_MOTION": 14.43175138, "ECCENTRICITY": 0.00247889, "INCLINATION": 86.3442, "RA_OF_ASC_NODE": 36.6683, "ARG_OF_PERICENTER": 243.3344, "MEAN_ANOMALY": 116.5319, "EPHEMERIS_TYPE": 0, "CLASSIFICATION_TYPE": "U", "NORAD_CAT_ID": 36083, "ELEMENT_SET_NO": 999, "REV_AT_EPOCH": 85365, "BSTAR": 0.00098432537, "MEAN_MOTION_DOT": 3.337e-05, "MEAN_MOTION_DDOT": 0}, "tle": {"line1": "1 36083U 97051VQ  25340.89753348  .00003337  00000+0  98433-3 0  9998", "line2": "2 36083  86.3442  36.6683 0024788 243.3344 116.5319 14.43175138853653"}}, "geometry": {"type": "Point", "coordinates": [36.97809991157814, 41.449459730318395]}}, {"type": "Feature", "properties": {"norad_id": 36390, "name": "IRIDIUM 33 DEB", "group": "iridium-33-debris", "lat": -34.973782778271456, "lon": -63.64787108753174, "alt_km": 676.6407883141101, "timestamp": "2025-12-13T16:48:33.095276+00:00", "meta": {"OBJECT_NAME": "IRIDIUM 33 DEB", "OBJECT_ID": "1997-051VU", "EPOCH": "2025-12-10T04:13:18.491808", "MEAN_MOTION": 14.73548967, "ECCENTRICITY": 0.00303441, "INCLINATION": 86.2912, "RA_OF_ASC_NODE": 300.5678, "ARG_OF_PERICENTER": 170.4809, "MEAN_ANOMALY": 189.6991, "EPHEMERIS_TYPE": 0, "CLASSIFICATION_TYPE": "U", "NORAD_CAT_ID": 36390, "ELEMENT_SET_NO": 999, "REV_AT_EPOCH": 66224, "BSTAR": 0.0016206136, "MEAN_MOTION_DOT": 0.00010646, "MEAN_MOTION_DDOT": 0}, "tle": {"line1": "1 36390U 97051VU  25344.17590847  .00010646  00000+0  16206-2 0  9995", "line2": "2 36390  86.2912 300.5678 0030344 170.4809 189.6991 14.73548967662240"}}, "geometry": {"type": "Point", "coordinates": [-63.64787108753174, -34.973782778271456]}}, {"type": "Feature", "properties": {"norad_id": 36483, "name": "IRIDIUM 33 DEB", "group": "iridium-33-debris", "lat": -34.27056696933748, "lon": -125.4492073531235, "alt_km": 746.0210125842477, "timestamp": "2025-12-13T16:48:33.095286+00:00", "meta": {"OBJECT_NAME": "IRIDIUM 33 DEB", "OBJECT_ID": "1997-051VZ", "EPOCH": "2025-12-10T11:24:52.773984", "MEAN_MOTION": 14.45797209, "ECCENTRICITY": 0.00110254, "INCLINATION": 86.3794, "RA_OF_ASC_NODE": 53.458, "ARG_OF_PERICENTER": 132.1914, "MEAN_ANOMALY": 228.0226, "EPHEMERIS_TYPE": 0, "CLASSIFICATION_TYPE": "U", "NORAD_CAT_ID": 36483, "ELEMENT_SET_NO": 999, "REV_AT_EPOCH": 65113, "BSTAR": 0.00078050397, "MEAN_MOTION_DOT": 2.789e-05, "MEAN_MOTION_DDOT": 0}, "tle": {"line1": "1 36483U 97051VZ  25344.47561081  .00002789  00000+0  78050-3 0  9994", "line2": "2 36483  86.3794  53.4580 0011025 132.1914 228.0226 14.45797209651134"}}, "geometry": {"type": "Point", "coordinates": [-125.4492073531235, -34.27056696933748]}}, {"type": "Feature", "properties": {"norad_id": 36490, "name": "IRIDIUM 33 DEB", "group": "iridium-33-debris", "lat": -35.99739258546785, "lon": -167.323435312057, "alt_km": 650.6600755592062, "timestamp": "2025-12-13T16:48:33.095296+00:00", "meta": {"OBJECT_NAME": "IRIDIUM 33 DEB", "OBJECT_ID": "1997-051WG", "EPOCH": "2025-12-10T08:06:56.843424", "MEAN_MOTION": 14.76107683, "ECCENTRICITY": 0.000555, "INCLINATION": 86.3658, "RA_OF_ASC_NODE": 11.546, "ARG_OF_PERICENTER": 88.8024, "MEAN_ANOMALY": 271.3831, "EPHEMERIS_TYPE": 0, "CLASSIFICATION_TYPE": "U", "NORAD_CAT_ID": 36490, "ELEMENT_SET_NO": 999, "REV_AT_EPOCH": 86449, "BSTAR": 0.0023364, "MEAN_MOTION_DOT": 0.00016171, "MEAN_MOTION_DDOT": 0}, "tle": {"line1": "1 36490U 97051WG  25344.33815791  .00016171  00000+0  23364-2 0  9994", "line2": "2 36490  86.3658  11.5460 0005550  88.8024 271.3831 14.76107683864491"}}, "geometry": {"type": "Point", "coordinates": [-167.323435312057, -35.99739258546785]}}, {"type": "Feature", "properties": {"norad_id": 36493, "name": "IRIDIUM 33 DEB", "group": "iridium-33-debris", "lat": 78.47740916138378, "lon": 173.0428277562378, "alt_km": 670.2174622566863, "timestamp": "2025-12-13T16:48:33.095306+00:00", "meta": {"OBJECT_NAME": "IRIDIUM 33 DEB", "OBJECT_ID": "1997-051WK", "EPOCH": "2025-12-10T19:30:39.824352", "MEAN_MOTION": 14.6519132, "ECCENTRICITY": 0.00104457, "INCLINATION": 86.3571, "RA_OF_ASC_NODE": 12.5357, "ARG_OF_PERICENTER": 11.652, "MEAN_ANOMALY": 348.4933, "EPHEMERIS_TYPE": 0, "CLASSIFICATION_TYPE": "U", "NORAD_CAT_ID": 36493, "ELEMENT_SET_NO": 999, "REV_AT_EPOCH": 74490, "BSTAR": 0.0018600988, "MEAN_MOTION_DOT": 0.00010041, "MEAN_MOTION_DDOT": 0}, "tle": {"line1": "1 36493U 97051WK  25344.81296093  .00010041  00000+0  18601-2 0  9996", "line2": "2 36493  86.3571  12.5357 0010445  11.6520 348.4933 14.65191320744909"}}, "geometry": {"type": "Point", "coordinates": [173.0428277562378, 78.47740916138378]}}, {"type": "Feature", "properties": {"norad_id": 37548, "name": "IRIDIUM 33 DEB", "group": "iridium-33-debris", "lat": -59.934496319488794, "lon": -130.72126012562669, "alt_km": 718.1521812352012, "timestamp": "2025-12-13T16:48:33.095315+00:00", "meta": {"OBJECT_NAME": "IRIDIUM 33 DEB", "OBJECT_ID": "1997-051XH", "EPOCH": "2025-12-10T21:30:59.995872", "MEAN_MOTION": 14.51276893, "ECCENTRICITY": 0.0025313, "INCLINATION": 86.3513, "RA_OF_ASC_NODE": 44.17, "ARG_OF_PERICENTER": 194.8863, "MEAN_ANOMALY": 165.16, "EPHEMERIS_TYPE": 0, "CLASSIFICATION_TYPE": "U", "NORAD_CAT_ID": 37548, "ELEMENT_SET_NO": 999, "REV_AT_EPOCH": 65505, "BSTAR": 0.0015557, "MEAN_MOTION_DOT": 6.233e-05, "MEAN_MOTION_DDOT": 0}, "tle": {"line1": "1 37548U 97051XH  25344.89652773  .00006233  00000+0  15557-2 0  9992", "line2": "2 37548  86.3513  44.1700 0025313 194.8863 165.1600 14.51276893655050"}}, "geometry": {"type": "Point", "coordinates": [-130.72126012562669, -59.934496319488794]}}]}